{"type": "FeatureCollection", "features": [ {"type": "Feature", "properties": {"norad_id": 37420, "name": "FENGYUN 1C DEB", "group": "fengyun-1c-debris", "lat": -61.22670694767054, "lon": 5.512225668675581, "alt_km": 873.1957290973096, "timestamp": "2025-12-25T09:48:52.579136+00:00", "meta": {"OBJECT_NAME": "FENGYUN 1C DEB", "OBJECT_ID": "1999-025EGN", "EPOCH": "2025-12-24T04:56:55.361184", "MEAN_MOTION": 13.99763331, "ECCENTRICITY": 0.00709676, "INCLINATION": 98.8645, "RA_OF_ASC_NODE": 347.8373, "ARG_OF_PERICENTER": 244.0926, "MEAN_ANOMALY": 115.2912, "EPHEMERIS_TYPE": 0, "CLASSIFICATION_TYPE": "U", "NORAD_CAT_ID": 37420, "ELEMENT_SET_NO": 999, "REV_AT_EPOCH": 59925, "BSTAR": 0.00034787038, "MEAN_MOTION_DOT": 4.78e-06, "MEAN_MOTION_DDOT": 0}, "tle": {"line1": "1 37420U 99025EGN 25358.20619631  .00000478  00000+0  34787-3 0  9992", "line2": "2 37420  98.8645 347.8373 0070967 244.0926 115.2912 13.99763331599255"}}, "geometry": {"type": "Point", "coordinates": [5.512225668675581, -61.22670694767054]}}, {"type": "Feature", "properties": {"norad_id": 37421, "name": "FENGYUN 1C DEB", "group": "fengyun-1c-debris", "lat": 75.49422249716311, "lon": 169.85840580357583, "alt_km": 887.397512978273, "timestamp": "2025-12-25T09:48:52.579146+00:00", "meta": {"OBJECT_NAME": "FENGYUN 1C DEB", "OBJECT_ID": "1999-025EGP", "EPOCH": "2025-12-22T15:04:15.674880", "MEAN_MOTION": 13.40544347, "ECCENTRICITY": 0.04094585, "INCLINATION": 98.8889, "RA_OF_ASC_NODE": 310.1905, "ARG_OF_PERICENTER": 60.6769, "MEAN_ANOMALY": 303.4625, "EPHEMERIS_TYPE": 0, "CLASSIFICATION_TYPE": "U", "NORAD_CAT_ID": 37421, "ELEMENT_SET_NO": 999, "REV_AT_EPOCH": 61078, "BSTAR": 0.00082017291, "MEAN_MOTION_DOT": 7.02e-06, "MEAN_MOTION_DDOT": 0}, "tle": {"line1": "1 37421U 99025EGP 25356.62795920  .00000702  00000+0  82017-3 0  9992", "line2": "2 37421  98.8889 310.1905 0409458  60.6769 303.4625 13.40544347610782"}}, "geometry": {"type": "Point", "coordinates": [169.85840580357583, 75.49422249716311]}}, {"type": "Feature", "properties": {"norad_id": 37423, "name": "FENGYUN 1C DEB", "group": "fengyun-1c-debris", "lat": -40.50677614901107, "lon": 56.894114432333176, "alt_km": 908.7933385001725, "timestamp": "2025-12-25T09:48:52.579155+00:00", "meta": {"OBJECT_NAME": "FENGYUN 1C DEB", "OBJECT_ID": "1999-025EGR", "EPOCH": "2025-12-19T20:56:31.693920", "MEAN_MOTION": 14.07571536, "ECCENTRICITY": 0.0049402, "INCLINATION": 98.7853, "RA_OF_ASC_NODE": 43.9189, "ARG_OF_PERICENTER": 140.2024, "MEAN_ANOMALY": 220.2786, "EPHEMERIS_TYPE": 0, "CLASSIFICATION_TYPE": "U", "NORAD_CAT_ID": 37423, "ELEMENT_SET_NO": 999, "REV_AT_EPOCH": 63710, "BSTAR": 0.00067171, "MEAN_MOTION_DOT": 1.103e-05, "MEAN_MOTION_DDOT": 0}, "tle": {"line1": "1 37423U 99025EGR 25353.87258905  .00001103  00000+0  67171-3 0  9995", "line2": "2 37423  98.7853  43.9189 0049402 140.2024 220.2786 14.07571536637100"}}, "geometry": {"type": "Point", "coordinates": [56.894114432333176, -40.50677614901107]}}, {"type": "Feature", "properties": {"norad_id": 37424, "name": "FENGYUN 1C DEB", "group": "fengyun-1c-debris", "lat": -57.16313613399072, "lon": 136.81886428971126, "alt_km": 754.5775610467181, "timestamp": "2025-12-25T09:48:52.579165+00:00", "meta": {"OBJECT_NAME": "FENGYUN 1C DEB", "OBJECT_ID": "1999-025EGS", "EPOCH": "2025-12-21T14:37:45.437952", "MEAN_MOTION": 14.17892468, "ECCENTRICITY": 0.021449, "INCLINATION": 97.1981, "RA_OF_ASC_NODE": 122.4405, "ARG_OF_PERICENTER": 255.8264, "MEAN_ANOMALY": 101.9002, "EPHEMERIS_TYPE": 0, "CLASSIFICATION_TYPE": "U", "NORAD_CAT_ID": 37424, "ELEMENT_SET_NO": 999, "REV_AT_EPOCH": 68699, "BSTAR": 0.00090223, "MEAN_MOTION_DOT": 2.279e-05, "MEAN_MOTION_DDOT": 0}, "tle": {"line1": "1 37424U 99025EGS 25355.60955368  .00002279  00000+0  90223-3 0  9995", "line2": "2 37424  97.1981 122.4405 0214490 255.8264 101.9002 14.17892468686998"}}, "geometry": {"type": "Point", "coordinates": [136.81886428971126, -57.16313613399072]}}, {"type": "Feature", "properties": {"norad_id": 37427, "name": "FENGYUN 1C DEB", "group": "fengyun-1c-debris", "lat": 39.264655039131796, "lon": 135.48651463336944, "alt_km": 673.6929962209651, "timestamp": "2025-12-25T09:48:52.579174+00:00", "meta": {"OBJECT_NAME": "FENGYUN 1C DEB", "OBJECT_ID": "1999-025EGV", "EPOCH": "2025-12-23T03:08:09.621888", "MEAN_MOTION": 14.98199136, "ECCENTRICITY": 0.01875461, "INCLINATION": 98.6215, "RA_OF_ASC_NODE": 140.0945, "ARG_OF_PERICENTER": 263.5159, "MEAN_ANOMALY": 94.4678, "EPHEMERIS_TYPE": 0, "CLASSIFICATION_TYPE": "U", "NORAD_CAT_ID": 37427, "ELEMENT_SET_NO": 999, "REV_AT_EPOCH": 60478, "BSTAR": 0.00053134728, "MEAN_MOTION_DOT": 9.01e-05, "MEAN_MOTION_DDOT": 0}, "tle": {"line1": "1 37427U 99025EGV 25357.13066692  .00009010  00000+0  53135-3 0  9992", "line2": "2 37427  98.6215 140.0945 0187546 263.5159  94.4678 14.98199136604785"}}, "geometry": {"type": "Point", "coordinates": [135.48651463336944, 39.264655039131796]}}, {"type": "Feature", "properties": {"norad_id": 37428, "name": "FENGYUN 1C DEB", "group": "fengyun-1c-debris", "lat": -45.01137647968987, "lon": 32.92713482578356, "alt_km": 821.7274583294793, "timestamp": "2025-12-25T09:48:52.579184+00:00", "meta": {"OBJECT_NAME": "FENGYUN 1C DEB", "OBJECT_ID": "1999-025EGW", "EPOCH": "2025-12-14T08:18:44.705664", "MEAN_MOTION": 14.34657068, "ECCENTRICITY": 0.0056813, "INCLINATION": 97.722, "RA_OF_ASC_NODE": 210.8336, "ARG_OF_PERICENTER": 94.0763, "MEAN_ANOMALY": 266.6921, "EPHEMERIS_TYPE": 0, "CLASSIFICATION_TYPE": "U", "NORAD_CAT_ID": 37428, "ELEMENT_SET_NO": 999, "REV_AT_EPOCH": 63459, "BSTAR": 0.0018586443, "MEAN_MOTION_DOT": 5.32e-05, "MEAN_MOTION_DDOT": 0}, "tle": {"line1": "1 37428U 99025EGW 25348.34635076  .00005320  00000+0  18586-2 0  9994", "line2": "2 37428  97.7220 210.8336 0056813  94.0763 266.6921 14.34657068634591"}}, "geometry": {"type": "Point", "coordinates": [32.92713482578356, -45.01137647968987]}}, {"type": "Feature", "properties": {"norad_id": 37430, "name": "FENGYUN 1C DEB", "group": "fengyun-1c-debris", "lat": 44.237333344026794, "lon": 64.94017067889823, "alt_km": 777.2213149720992, "timestamp": "2025-12-25T09:48:52.579194+00:00", "meta": {"OBJECT_NAME": "FENGYUN 1C DEB", "OBJECT_ID": "1999-025EGY", "EPOCH": "2025-12-05T03:58:16.719456", "MEAN_MOTION": 14.28846273, "ECCENTRICITY": 0.001883, "INCLINATION": 98.7668, "RA_OF_ASC_NODE": 53.2332, "ARG_OF_PERICENTER": 93.5332, "MEAN_ANOMALY": 266.8003, "EPHEMERIS_TYPE": 0, "CLASSIFICATION_TYPE": "U", "NORAD_CAT_ID": 37430, "ELEMENT_SET_NO": 999, "REV_AT_EPOCH": 61593, "BSTAR": 0.0038447795, "MEAN_MOTION_DOT": 9.683e-05, "MEAN_MOTION_DDOT": 0}, "tle": {"line1": "1 37430U 99025EGY 25339.16547129  .00009683  00000+0  38448-2 0  9993", "line2": "2 37430  98.7668  53.2332 0018830  93.5332 266.8003 14.28846273615930"}}, "geometry": {"type": "Point", "coordinates": [64.94017067889823, 44.237333344026794]}}, {"type": "Feature", "properties": {"norad_id": 37432, "name": "FENGYUN 1C DEB", "group": "fengyun-1c-debris", "lat": 33.004715579467856, "lon": -162.2419946369916, "alt_km": 736.8309765634613, "timestamp": "2025-12-25T09:48:52.579204+00:00", "meta": {"OBJECT_NAME": "FENGYUN 1C DEB", "OBJECT_ID": "1999-025EHA", "EPOCH": "2025-12-24T18:15:18.734400", "MEAN_MOTION": 14.53531824, "ECCENTRICITY": 0.01819429, "INCLINATION": 98.1835, "RA_OF_ASC_NODE": 11.7612, "ARG_OF_PERICENTER": 250.5867, "MEAN_ANOMALY": 107.5588, "EPHEMERIS_TYPE": 0, "CLASSIFICATION_TYPE": "U", "NORAD_CAT_ID": 37432, "ELEMENT_SET_NO": 999, "REV_AT_EPOCH": 8551, "BSTAR": 0.0007649529, "MEAN_MOTION_DOT": 3.922e-05, "MEAN_MOTION_DDOT": 0}, "tle": {"line1": "1 37432U 99025EHA 25358.76063350  .00003922  00000+0  76495-3 0  9996", "line2": "2 37432  98.1835  11.7612 0181942 250.5867 107.5588 14.53531824 85510"}}, "geometry": {"type": "Point", "coordinates": [-162.2419946369916, 33.004715579467856]}}, {"type": "Feature", "properties": {"norad_id": 37435, "name": "FENGYUN 1C DEB", "group": "fengyun-1c-debris", "lat": 81.00924639470823, "lon": -38.62891897902966, "alt_km": 819.5047158370808, "timestamp": "2025-12-25T09:48:52.579214+00:00", "meta": {"OBJECT_NAME": "FENGYUN 1C DEB", "OBJECT_ID": "1999-025EHD", "EPOCH": "2025-12-23T20:15:53.797824", "MEAN_MOTION": 14.22411114, "ECCENTRICITY": 0.0039917, "INCLINATION": 98.647, "RA_OF_ASC_NODE": 33.9447, "ARG_OF_PERICENTER": 341.9849, "MEAN_ANOMALY": 17.9912, "EPHEMERIS_TYPE": 0, "CLASSIFICATION_TYPE": "U", "NORAD_CAT_ID": 37435, "ELEMENT_SET_NO": 999, "REV_AT_EPOCH": 89097, "BSTAR": 0.0010416, "MEAN_MOTION_DOT": 2.295e-05, "MEAN_MOTION_DDOT": 0}, "tle": {"line1": "1 37435U 99025EHD 25357.84437266  .00002295  00000+0  10416-2 0  9990", "line2": "2 37435  98.6470  33.9447 0039917 341.9849  17.9912 14.22411114890978"}}, "geometry": {"type": "Point", "coordinates": [-38.62891897902966, 81.00924639470823]}}, {"type": "Feature", "properties": {"norad_id": 37436, "name": "FENGYUN 1C DEB", "group": "fengyun-1c-debris", "lat": 15.5514909656805, "lon": -123.75210500261858, "alt_km": 845.0056727360561, "timestamp": "2025-12-25T09:48:52.579242+00:00", "meta": {"OBJECT_NAME": "FENGYUN 1C DEB", "OBJECT_ID": "1999-025EHE", "EPOCH": "2025-12-23T21:11:07.054656", "MEAN_MOTION": 14.06368002, "ECCENTRICITY": 0.0059893, "INCLINATION": 98.9358, "RA_OF_ASC_NODE": 52.232, "ARG_OF_PERICENTER": 117.3894, "MEAN_ANOMALY": 243.3385, "EPHEMERIS_TYPE": 0, "CLASSIFICATION_TYPE": "U", "NORAD_CAT_ID": 37436, "ELEMENT_SET_NO": 999, "REV_AT_EPOCH": 64155, "BSTAR": 0.00060854, "MEAN_MOTION_DOT": 9.77e-06, "MEAN_MOTION_DDOT": 0}, "tle": {"line1": "1 37436U 99025EHE 25357.88272054  .00000977  00000+0  60854-3 0  9994", "line2": "2 37436  98.9358  52.2320 0059893 117.3894 243.3385 14.06368002641557"}}, "geometry": {"type": "Point", "coordinates": [-123.75210500261858, 15.5514909656805]}}]}